{
  "type": "FeatureCollection",
  "features": [
    {
      "type": "Feature",
      "properties": {
        "norad_id": 66884,
        "name": "STARLINK-36057",
        "group": "last-30-days",
        "lat": 51.27355121487863,
        "lon": 164.37924188332175,
        "alt_km": 298.44555284293983,
        "timestamp": "2025-12-16T17:51:09.662570+00:00",
        "meta_object_name": "STARLINK-36057",
        "meta_object_id": "2025-283G",
        "meta_epoch": "2025-12-15T21:47:21.222528",
        "meta_mean_motion": 15.87828815,
        "meta_eccentricity": 0.00021258,
        "meta_inclination": 53.1552,
        "meta_ra_of_asc_node": 57.8616,
        "meta_arg_of_pericenter": 44.1881,
        "meta_mean_anomaly": 315.9314,
        "meta_ephemeris_type": 0,
        "meta_classification_type": "U",
        "meta_norad_cat_id": 66884,
        "meta_element_set_no": 999,
        "meta_rev_at_epoch": 295,
        "meta_bstar": 0.0017612472,
        "meta_mean_motion_dot": 0.00513046,
        "meta_mean_motion_ddot": 0,
        "tle_line1": "1 66884U 25283G   25349.90788452  .00513046  00000+0  17612-2 0  9995",
        "tle_line2": "2 66884  53.1552  57.8616 0002125  44.1881 315.9314 15.87828815  2959"
      },
      "geometry": {
        "type": "Point",
        "coordinates": [
          164.37924188332175,
          51.27355121487863
        ]
      }
    },
    {
      "type": "Feature",
      "properties": {
        "norad_id": 66885,
        "name": "STARLINK-35954",
        "group": "last-30-days",
        "lat": 52.75530590146286,
        "lon": 153.12989476940197,
        "alt_km": 300.7767761132991,
        "timestamp": "2025-12-16T17:51:09.662580+00:00",
        "meta_object_name": "STARLINK-35954",
        "meta_object_id": "2025-283H",
        "meta_epoch": "2025-12-15T21:48:11.589408",
        "meta_mean_motion": 15.87027142,
        "meta_eccentricity": 0.00054547,
        "meta_inclination": 53.1553,
        "meta_ra_of_asc_node": 57.8661,
        "meta_arg_of_pericenter": 57.3413,
        "meta_mean_anomaly": 302.8137,
        "meta_ephemeris_type": 0,
        "meta_classification_type": "U",
        "meta_norad_cat_id": 66885,
        "meta_element_set_no": 999,
        "meta_rev_at_epoch": 295,
        "meta_bstar": -0.00020260527,
        "meta_mean_motion_dot": -0.00054134,
        "meta_mean_motion_ddot": 0,
        "tle_line1": "1 66885U 25283H   25349.90846747 -.00054134  00000+0 -20261-3 0  9993",
        "tle_line2": "2 66885  53.1553  57.8661 0005454  57.3413 302.8137 15.87027142  2958"
      },
      "geometry": {
        "type": "Point",
        "coordinates": [
          153.12989476940197,
          52.75530590146286
        ]
      }
    },
    {
      "type": "Feature",
      "properties": {
        "norad_id": 66886,
        "name": "STARLINK-35900",
        "group": "last-30-days",
        "lat": 51.35769584243368,
        "lon": 163.9185460103201,
        "alt_km": 303.7705173418108,
        "timestamp": "2025-12-16T17:51:09.662594+00:00",
        "meta_object_name": "STARLINK-35900",
        "meta_object_id": "2025-283J",
        "meta_epoch": "2025-12-15T14:13:20.340192",
        "meta_mean_motion": 15.87792328,
        "meta_eccentricity": 0.00015012,
        "meta_inclination": 53.1552,
        "meta_ra_of_asc_node": 59.451,
        "meta_arg_of_pericenter": 44.9915,
        "meta_mean_anomaly": 315.1232,
        "meta_ephemeris_type": 0,
        "meta_classification_type": "U",
        "meta_norad_cat_id": 66886,
        "meta_element_set_no": 999,
        "meta_rev_at_epoch": 290,
        "meta_bstar": -0.0017057792,
        "meta_mean_motion_dot": -0.00446751,
        "meta_mean_motion_ddot": 0,
        "tle_line1": "1 66886U 25283J   25349.59259653 -.00446751  00000+0 -17058-2 0  9992",
        "tle_line2": "2 66886  53.1552  59.4510 0001501  44.9915 315.1232 15.87792328  2900"
      },
      "geometry": {
        "type": "Point",
        "coordinates": [
          163.9185460103201,
          51.35769584243368
        ]
      }
    },
    {
      "type": "Feature",
      "properties": {
        "norad_id": 66887,
        "name": "STARLINK-35925",
        "group": "last-30-days",
        "lat": 48.936393569935426,
        "lon": 174.21586954880985,
        "alt_km": 298.3229075663621,
        "timestamp": "2025-12-16T17:51:09.662607+00:00",
        "meta_object_name": "STARLINK-35925",
        "meta_object_id": "2025-283K",
        "meta_epoch": "2025-12-15T21:45:54.959040",
        "meta_mean_motion": 15.88032689,
        "meta_eccentricity": 0.00012546,
        "meta_inclination": 53.1552,
        "meta_ra_of_asc_node": 57.8549,
        "meta_arg_of_pericenter": 12.1464,
        "meta_mean_anomaly": 347.9592,
        "meta_ephemeris_type": 0,
        "meta_classification_type": "U",
        "meta_norad_cat_id": 66887,
        "meta_element_set_no": 999,
        "meta_rev_at_epoch": 295,
        "meta_bstar": 0.0023111865,
        "meta_mean_motion_dot": 0.00694678,
        "meta_mean_motion_ddot": 0,
        "tle_line1": "1 66887U 25283K   25349.90688610  .00694678  00000+0  23112-2 0  9996",
        "tle_line2": "2 66887  53.1552  57.8549 0001254  12.1464 347.9592 15.88032689  2951"
      },
      "geometry": {
        "type": "Point",
        "coordinates": [
          174.21586954880985,
          48.936393569935426
        ]
      }
    },
    {
      "type": "Feature",
      "properties": {
        "norad_id": 66888,
        "name": "STARLINK-35919",
        "group": "last-30-days",
        "lat": 49.59064537944603,
        "lon": 171.8737287138579,
        "alt_km": 303.8494499875587,
        "timestamp": "2025-12-16T17:51:09.662617+00:00",
        "meta_object_name": "STARLINK-35919",
        "meta_object_id": "2025-283L",
        "meta_epoch": "2025-12-15T12:41:28.057344",
        "meta_mean_motion": 15.87997937,
        "meta_eccentricity": 0.00010006,
        "meta_inclination": 53.1552,
        "meta_ra_of_asc_node": 59.7638,
        "meta_arg_of_pericenter": 85.9749,
        "meta_mean_anomaly": 274.1391,
        "meta_ephemeris_type": 0,
        "meta_classification_type": "U",
        "meta_norad_cat_id": 66888,
        "meta_element_set_no": 999,
        "meta_rev_at_epoch": 289,
        "meta_bstar": -0.0018154422,
        "meta_mean_motion_dot": -0.0047856,
        "meta_mean_motion_ddot": 0,
        "tle_line1": "1 66888U 25283L   25349.52879696 -.00478560  00000+0 -18154-2 0  9993",
        "tle_line2": "2 66888  53.1552  59.7638 0001000  85.9749 274.1391 15.87997937  2891"
      },
      "geometry": {
        "type": "Point",
        "coordinates": [
          171.8737287138579,
          49.59064537944603
        ]
      }
    },
    {
      "type": "Feature",
      "properties": {
        "norad_id": 66889,
        "name": "STARLINK-35852",
        "group": "last-30-days",
        "lat": 49.7155718776821,
        "lon": 171.39664395692998,
        "alt_km": 305.58377628486505,
        "timestamp": "2025-12-16T17:51:09.662628+00:00",
        "meta_object_name": "STARLINK-35852",
        "meta_object_id": "2025-283M",
        "meta_epoch": "2025-12-15T21:44:49.658784",
        "meta_mean_motion": 15.86919956,
        "meta_eccentricity": 0.00023707,
        "meta_inclination": 53.1546,
        "meta_ra_of_asc_node": 57.849,
        "meta_arg_of_pericenter": 53.2774,
        "meta_mean_anomaly": 306.8469,
        "meta_ephemeris_type": 0,
        "meta_classification_type": "U",
        "meta_norad_cat_id": 66889,
        "meta_element_set_no": 999,
        "meta_rev_at_epoch": 295,
        "meta_bstar": -0.0020276948,
        "meta_mean_motion_dot": -0.00505329,
        "meta_mean_motion_ddot": 0,
        "tle_line1": "1 66889U 25283M   25349.90613031 -.00505329  00000+0 -20277-2 0  9998",
        "tle_line2": "2 66889  53.1546  57.8490 0002370  53.2774 306.8469 15.86919956  2957"
      },
      "geometry": {
        "type": "Point",
        "coordinates": [
          171.39664395692998,
          49.7155718776821
        ]
      }
    },
    {
      "type": "Feature",
      "properties": {
        "norad_id": 66890,
        "name": "STARLINK-35885",
        "group": "last-30-days",
        "lat": 46.19198668108401,
        "lon": -177.8225198389463,
        "alt_km": 299.85384416354555,
        "timestamp": "2025-12-16T17:51:09.662638+00:00",
        "meta_object_name": "STARLINK-35885",
        "meta_object_id": "2025-283N",
        "meta_epoch": "2025-12-15T21:44:02.722848",
        "meta_mean_motion": 15.87705808,
        "meta_eccentricity": 0.00021789,
        "meta_inclination": 53.1551,
        "meta_ra_of_asc_node": 57.8457,
        "meta_arg_of_pericenter": 43.2715,
        "meta_mean_anomaly": 316.8482,
        "meta_ephemeris_type": 0,
        "meta_classification_type": "U",
        "meta_norad_cat_id": 66890,
        "meta_element_set_no": 999,
        "meta_rev_at_epoch": 295,
        "meta_bstar": 0.0017263509,
        "meta_mean_motion_dot": 0.00499019,
        "meta_mean_motion_ddot": 0,
        "tle_line1": "1 66890U 25283N   25349.90558707  .00499019  00000+0  17264-2 0  9996",
        "tle_line2": "2 66890  53.1551  57.8457 0002178  43.2715 316.8482 15.87705808  2954"
      },
      "geometry": {
        "type": "Point",
        "coordinates": [
          -177.8225198389463,
          46.19198668108401
        ]
      }
    }
  ]
}